{
  "type": "FeatureCollection",
  "features": [
    {
      "type": "Feature",
      "properties": {
        "norad_id": 36558,
        "name": "COSMOS 2251 DEB",
        "group": "cosmos-2251-debris",
        "lat": 63.73527092693922,
        "lon": -158.40640601516353,
        "alt_km": 711.0820950131447,
        "timestamp": "2025-12-06T14:35:37.523522+00:00",
        "meta_object_name": "COSMOS 2251 DEB",
        "meta_object_id": "1993-036BDU",
        "meta_epoch": "2025-12-06T06:01:43.478688",
        "meta_mean_motion": 14.55287129,
        "meta_eccentricity": 0.00130881,
        "meta_inclination": 74.0413,
        "meta_ra_of_asc_node": 166.8264,
        "meta_arg_of_pericenter": 255.1947,
        "meta_mean_anomaly": 104.7766,
        "meta_ephemeris_type": 0,
        "meta_classification_type": "U",
        "meta_norad_cat_id": 36558,
        "meta_element_set_no": 999,
        "meta_rev_at_epoch": 85174,
        "meta_bstar": 0.0015050875,
        "meta_mean_motion_dot": 6.507e-05,
        "meta_mean_motion_ddot": 0,
        "tle_line1": "1 36558U 93036BDU 25340.25119767  .00006507  00000+0  15051-2 0  9991",
        "tle_line2": "2 36558  74.0413 166.8264 0013088 255.1947 104.7766 14.55287129851744"
      },
      "geometry": {
        "type": "Point",
        "coordinates": [
          -158.40640601516353,
          63.73527092693922
        ]
      }
    },
    {
      "type": "Feature",
      "properties": {
        "norad_id": 36559,
        "name": "COSMOS 2251 DEB",
        "group": "cosmos-2251-debris",
        "lat": 26.192844377334776,
        "lon": -167.75291454698666,
        "alt_km": 929.1069873918059,
        "timestamp": "2025-12-06T14:35:37.523532+00:00",
        "meta_object_name": "COSMOS 2251 DEB",
        "meta_object_id": "1993-036BDV",
        "meta_epoch": "2025-12-03T03:17:00.548160",
        "meta_mean_motion": 13.95062123,
        "meta_eccentricity": 0.02603187,
        "meta_inclination": 74.1298,
        "meta_ra_of_asc_node": 26.2197,
        "meta_arg_of_pericenter": 61.9669,
        "meta_mean_anomaly": 300.7529,
        "meta_ephemeris_type": 0,
        "meta_classification_type": "U",
        "meta_norad_cat_id": 36559,
        "meta_element_set_no": 999,
        "meta_rev_at_epoch": 80960,
        "meta_bstar": 0.0032733881,
        "meta_mean_motion_dot": 5.835e-05,
        "meta_mean_motion_ddot": 0,
        "tle_line1": "1 36559U 93036BDV 25337.13681190  .00005835  00000+0  32734-2 0  9999",
        "tle_line2": "2 36559  74.1298  26.2197 0260318  61.9669 300.7529 13.95062123809606"
      },
      "geometry": {
        "type": "Point",
        "coordinates": [
          -167.75291454698666,
          26.192844377334776
        ]
      }
    },
    {
      "type": "Feature",
      "properties": {
        "norad_id": 36614,
        "name": "COSMOS 2251 DEB",
        "group": "cosmos-2251-debris",
        "lat": -20.971515199959118,
        "lon": 179.99482533666517,
        "alt_km": 696.0054111877989,
        "timestamp": "2025-12-06T14:35:37.523542+00:00",
        "meta_object_name": "COSMOS 2251 DEB",
        "meta_object_id": "1993-036BEC",
        "meta_epoch": "2025-12-03T20:55:07.059072",
        "meta_mean_motion": 14.60089968,
        "meta_eccentricity": 0.0016551,
        "meta_inclination": 74.0216,
        "meta_ra_of_asc_node": 191.525,
        "meta_arg_of_pericenter": 261.9036,
        "meta_mean_anomaly": 98.0252,
        "meta_ephemeris_type": 0,
        "meta_classification_type": "U",
        "meta_norad_cat_id": 36614,
        "meta_element_set_no": 999,
        "meta_rev_at_epoch": 65483,
        "meta_bstar": 0.0023551,
        "meta_mean_motion_dot": 0.00011335,
        "meta_mean_motion_ddot": 0,
        "tle_line1": "1 36614U 93036BEC 25337.87160948  .00011335  00000+0  23551-2 0  9994",
        "tle_line2": "2 36614  74.0216 191.5250 0016551 261.9036  98.0252 14.60089968654833"
      },
      "geometry": {
        "type": "Point",
        "coordinates": [
          179.99482533666517,
          -20.971515199959118
        ]
      }
    },
    {
      "type": "Feature",
      "properties": {
        "norad_id": 36622,
        "name": "COSMOS 2251 DEB",
        "group": "cosmos-2251-debris",
        "lat": 48.86592966314585,
        "lon": 176.66166292463112,
        "alt_km": 658.9350725748573,
        "timestamp": "2025-12-06T14:35:37.523552+00:00",
        "meta_object_name": "COSMOS 2251 DEB",
        "meta_object_id": "1993-036BEL",
        "meta_epoch": "2025-12-05T18:50:31.173792",
        "meta_mean_motion": 14.76102152,
        "meta_eccentricity": 0.00686855,
        "meta_inclination": 74.0122,
        "meta_ra_of_asc_node": 159.1111,
        "meta_arg_of_pericenter": 295.8754,
        "meta_mean_anomaly": 63.5348,
        "meta_ephemeris_type": 0,
        "meta_classification_type": "U",
        "meta_norad_cat_id": 36622,
        "meta_element_set_no": 999,
        "meta_rev_at_epoch": 66647,
        "meta_bstar": 0.0011321064,
        "meta_mean_motion_dot": 8.096e-05,
        "meta_mean_motion_ddot": 0,
        "tle_line1": "1 36622U 93036BEL 25339.78508303  .00008096  00000+0  11321-2 0  9998",
        "tle_line2": "2 36622  74.0122 159.1111 0068685 295.8754  63.5348 14.76102152666476"
      },
      "geometry": {
        "type": "Point",
        "coordinates": [
          176.66166292463112,
          48.86592966314585
        ]
      }
    },
    {
      "type": "Feature",
      "properties": {
        "norad_id": 36632,
        "name": "COSMOS 2251 DEB",
        "group": "cosmos-2251-debris",
        "lat": -39.00023288598945,
        "lon": 137.2189970170468,
        "alt_km": 776.264125279974,
        "timestamp": "2025-12-06T14:35:37.523561+00:00",
        "meta_object_name": "COSMOS 2251 DEB",
        "meta_object_id": "1993-036BEW",
        "meta_epoch": "2025-12-02T14:44:27.820896",
        "meta_mean_motion": 14.43079898,
        "meta_eccentricity": 0.00315122,
        "meta_inclination": 74.0016,
        "meta_ra_of_asc_node": 311.214,
        "meta_arg_of_pericenter": 61.7706,
        "meta_mean_anomaly": 298.6626,
        "meta_ephemeris_type": 0,
        "meta_classification_type": "U",
        "meta_norad_cat_id": 36632,
        "meta_element_set_no": 999,
        "meta_rev_at_epoch": 65069,
        "meta_bstar": 0.0010615143,
        "meta_mean_motion_dot": 3.557e-05,
        "meta_mean_motion_ddot": 0,
        "tle_line1": "1 36632U 93036BEW 25336.61421089  .00003557  00000+0  10615-2 0  9995",
        "tle_line2": "2 36632  74.0016 311.2140 0031512  61.7706 298.6626 14.43079898650699"
      },
      "geometry": {
        "type": "Point",
        "coordinates": [
          137.2189970170468,
          -39.00023288598945
        ]
      }
    },
    {
      "type": "Feature",
      "properties": {
        "norad_id": 37084,
        "name": "COSMOS 2251 DEB",
        "group": "cosmos-2251-debris",
        "lat": 27.96104954878548,
        "lon": -177.31678834439757,
        "alt_km": 609.2327317483241,
        "timestamp": "2025-12-06T14:35:37.523573+00:00",
        "meta_object_name": "COSMOS 2251 DEB",
        "meta_object_id": "1993-036BFE",
        "meta_epoch": "2025-12-06T06:27:50.366016",
        "meta_mean_motion": 15.00839572,
        "meta_eccentricity": 0.00980116,
        "meta_inclination": 74.0252,
        "meta_ra_of_asc_node": 174.6261,
        "meta_arg_of_pericenter": 256.595,
        "meta_mean_anomaly": 102.4298,
        "meta_ephemeris_type": 0,
        "meta_classification_type": "U",
        "meta_norad_cat_id": 37084,
        "meta_element_set_no": 999,
        "meta_rev_at_epoch": 66170,
        "meta_bstar": 0.00083053394,
        "meta_mean_motion_dot": 0.00011674,
        "meta_mean_motion_ddot": 0,
        "tle_line1": "1 37084U 93036BFE 25340.26933294  .00011674  00000+0  83053-3 0  9995",
        "tle_line2": "2 37084  74.0252 174.6261 0098011 256.5950 102.4298 15.00839572661708"
      },
      "geometry": {
        "type": "Point",
        "coordinates": [
          -177.31678834439757,
          27.96104954878548
        ]
      }
    },
    {
      "type": "Feature",
      "properties": {
        "norad_id": 37085,
        "name": "COSMOS 2251 DEB",
        "group": "cosmos-2251-debris",
        "lat": -72.46572838758108,
        "lon": 163.71786849621782,
        "alt_km": 466.9602781838212,
        "timestamp": "2025-12-06T14:35:37.523585+00:00",
        "meta_object_name": "COSMOS 2251 DEB",
        "meta_object_id": "1993-036BFF",
        "meta_epoch": "2025-12-02T23:36:37.668384",
        "meta_mean_motion": 15.39020756,
        "meta_eccentricity": 0.0022856,
        "meta_inclination": 73.9503,
        "meta_ra_of_asc_node": 237.2473,
        "meta_arg_of_pericenter": 76.375,
        "meta_mean_anomaly": 284,
        "meta_ephemeris_type": 0,
        "meta_classification_type": "U",
        "meta_norad_cat_id": 37085,
        "meta_element_set_no": 999,
        "meta_rev_at_epoch": 66987,
        "meta_bstar": 0.0028642077,
        "meta_mean_motion_dot": 0.00113322,
        "meta_mean_motion_ddot": 0,
        "tle_line1": "1 37085U 93036BFF 25336.98376931  .00113322  00000+0  28642-2 0  9994",
        "tle_line2": "2 37085  73.9503 237.2473 0022856  76.3750 284.0000 15.39020756669879"
      },
      "geometry": {
        "type": "Point",
        "coordinates": [
          163.71786849621782,
          -72.46572838758108
        ]
      }
    }
  ]
}